ONEWEB-0125             
1 47271U 20100P   25328.24821743  .00000465  00000+0  12583-2 0  9990
2 47271  87.8961  31.3611 0001663 108.6141 251.5168 13.12442956237753
ONEWEB-0126             
1 47272U 20100Q   25328.42191740 -.00000080  00000+0 -25861-3 0  9997
2 47272  87.8962  31.3502 0001769  98.1440 261.9889 13.12440968237842
ONEWEB-0127             
1 47273U 20100R   25328.46395447  .00000132  00000+0  33250-3 0  9999
2 47273  87.8956  31.3529 0001792  95.2762 264.8571 13.12443377237876
ONEWEB-0128             
1 47274U 20100S   25328.18171539  .00000353  00000+0  94602-3 0  9996
2 47274  87.8953  31.4270 0002055  98.5421 261.5941 13.12441909237851
ONEWEB-0129             
1 47275U 20100T   25328.23685973  .00000405  00000+0  10891-2 0  9990
2 47275  87.8963  31.3672 0001831  66.5794 293.5527 13.12443652237792
ONEWEB-0130             
1 47276U 20100U   25328.41691448  .00000143  00000+0  36115-3 0  9992
2 47276  87.8964  31.3273 0001912  97.8895 262.2451 13.12441397237782
ONEWEB-0131             
1 47277U 20100V   25328.41367243  .00000277  00000+0  73389-3 0  9998
2 47277  87.8962  31.3578 0001888 101.6691 258.4650 13.12441683237820
ONEWEB-0132             
1 47278U 20100W   25328.44286172 -.00000399  00000+0 -11455-2 0  9995
2 47278  87.8959  31.3534 0001845 100.0732 260.0605 13.12442819237721
ONEWEB-0133             
1 47279U 20100X   25328.45894993  .00000073  00000+0  16705-3 0  9994
2 47279  87.8954  31.3130 0001977 100.0860 260.0492 13.12444112237886
ONEWEB-0134             
1 47280U 20100Y   25328.19955498 -.00000224  00000+0 -65734-3 0  9991
2 47280  87.8963  31.3590 0002032  96.2416 263.8944 13.12441988237829
ONEWEB-0135             
1 47281U 20100Z   25328.17036120  .00000554  00000+0  15050-2 0  9991
2 47281  87.8959  31.4045 0002221  96.4307 263.7074 13.12443042237840
ONEWEB-0136             
1 47282U 20100AA  25328.41853523  .00000112  00000+0  27643-3 0  9995
2 47282  87.8963  31.3245 0002086  91.7784 268.3584 13.12441601237805
ONEWEB-0137             
1 47283U 20100AB  25328.22388131 -.00000150  00000+0 -45255-3 0  9996
2 47283  87.8962  31.3689 0001621  99.9377 260.1935 13.12443847237689
ONEWEB-0138             
1 47284U 20100AC  25328.20279627 -.00000312  00000+0 -90223-3 0  9999
2 47284  87.8957  31.3816 0001895  96.7679 263.3665 13.12442067237766
ONEWEB-0139             
1 47285U 20100AD  25328.24187419  .00000461  00000+0  12451-2 0  9990
2 47285  87.8960  31.3641 0001858 102.6072 257.5264 13.12444670237841
ONEWEB-0140             
1 47286U 20100AE  25328.19631356 -.00000542  00000+0 -15409-2 0  9997
2 47286  87.8963  31.3598 0001977  98.4185 261.7167 13.12437727237805
ONEWEB-0141             
1 47287U 20100AF  25328.24159750  .00000425  00000+0  11470-2 0  9999
2 47287  87.8954  31.3607 0001482 101.6087 258.5208 13.12443752237799
