[{"OBJECT_NAME":"ONEWEB-0125","OBJECT_ID":"2020-100P","EPOCH":"2025-11-24T05:57:25.985952","MEAN_MOTION":13.12442956,"ECCENTRICITY":0.0001663,"INCLINATION":87.8961,"RA_OF_ASC_NODE":31.3611,"ARG_OF_PERICENTER":108.6141,"MEAN_ANOMALY":251.5168,"EPHEMERIS_TYPE":0,"CLASSIFICATION_TYPE":"U","NORAD_CAT_ID":47271,"ELEMENT_SET_NO":999,"REV_AT_EPOCH":23775,"BSTAR":0.0012583,"MEAN_MOTION_DOT":4.65e-6,"MEAN_MOTION_DDOT":0},{"OBJECT_NAME":"ONEWEB-0126","OBJECT_ID":"2020-100Q","EPOCH":"2025-11-24T10:07:33.663360","MEAN_MOTION":13.12440968,"ECCENTRICITY":0.0001769,"INCLINATION":87.8962,"RA_OF_ASC_NODE":31.3502,"ARG_OF_PERICENTER":98.144,"MEAN_ANOMALY":261.9889,"EPHEMERIS_TYPE":0,"CLASSIFICATION_TYPE":"U","NORAD_CAT_ID":47272,"ELEMENT_SET_NO":999,"REV_AT_EPOCH":23784,"BSTAR":-0.00025861,"MEAN_MOTION_DOT":-8.0e-7,"MEAN_MOTION_DDOT":0},{"OBJECT_NAME":"ONEWEB-0127","OBJECT_ID":"2020-100R","EPOCH":"2025-11-24T11:08:05.666208","MEAN_MOTION":13.12443377,"ECCENTRICITY":0.0001792,"INCLINATION":87.8956,"RA_OF_ASC_NODE":31.3529,"ARG_OF_PERICENTER":95.2762,"MEAN_ANOMALY":264.8571,"EPHEMERIS_TYPE":0,"CLASSIFICATION_TYPE":"U","NORAD_CAT_ID":47273,"ELEMENT_SET_NO":999,"REV_AT_EPOCH":23787,"BSTAR":0.0003325,"MEAN_MOTION_DOT":1.32e-6,"MEAN_MOTION_DDOT":0},{"OBJECT_NAME":"ONEWEB-0128","OBJECT_ID":"2020-100S","EPOCH":"2025-11-24T04:21:40.209696","MEAN_MOTION":13.12441909,"ECCENTRICITY":0.0002055,"INCLINATION":87.8953,"RA_OF_ASC_NODE":31.427,"ARG_OF_PERICENTER":98.5421,"MEAN_ANOMALY":261.5941,"EPHEMERIS_TYPE":0,"CLASSIFICATION_TYPE":"U","NORAD_CAT_ID":47274,"ELEMENT_SET_NO":999,"REV_AT_EPOCH":23785,"BSTAR":0.00094602,"MEAN_MOTION_DOT":3.53e-6,"MEAN_MOTION_DDOT":0},{"OBJECT_NAME":"ONEWEB-0129","OBJECT_ID":"2020-100T","EPOCH":"2025-11-24T05:41:04.680672","MEAN_MOTION":13.12443652,"ECCENTRICITY":0.0001831,"INCLINATION":87.8963,"RA_OF_ASC_NODE":31.3672,"ARG_OF_PERICENTER":66.5794,"MEAN_ANOMALY":293.5527,"EPHEMERIS_TYPE":0,"CLASSIFICATION_TYPE":"U","NORAD_CAT_ID":47275,"ELEMENT_SET_NO":999,"REV_AT_EPOCH":23779,"BSTAR":0.0010891,"MEAN_MOTION_DOT":4.05e-6,"MEAN_MOTION_DDOT":0},{"OBJECT_NAME":"ONEWEB-0130","OBJECT_ID":"2020-100U","EPOCH":"2025-11-24T10:00:21.411072","MEAN_MOTION":13.12441397,"ECCENTRICITY":0.0001912,"INCLINATION":87.8964,"RA_OF_ASC_NODE":31.3273,"ARG_OF_PERICENTER":97.8895,"MEAN_ANOMALY":262.2451,"EPHEMERIS_TYPE":0,"CLASSIFICATION_TYPE":"U","NORAD_CAT_ID":47276,"ELEMENT_SET_NO":999,"REV_AT_EPOCH":23778,"BSTAR":0.00036115,"MEAN_MOTION_DOT":1.43e-6,"MEAN_MOTION_DDOT":0},{"OBJECT_NAME":"ONEWEB-0131","OBJECT_ID":"2020-100V","EPOCH":"2025-11-24T09:55:41.297952","MEAN_MOTION":13.12441683,"ECCENTRICITY":0.0001888,"INCLINATION":87.8962,"RA_OF_ASC_NODE":31.3578,"ARG_OF_PERICENTER":101.6691,"MEAN_ANOMALY":258.465,"EPHEMERIS_TYPE":0,"CLASSIFICATION_TYPE":"U","NORAD_CAT_ID":47277,"ELEMENT_SET_NO":999,"REV_AT_EPOCH":23782,"BSTAR":0.00073389,"MEAN_MOTION_DOT":2.77e-6,"MEAN_MOTION_DDOT":0},{"OBJECT_NAME":"ONEWEB-0132","OBJECT_ID":"2020-100W","EPOCH":"2025-11-24T10:37:43.252608","MEAN_MOTION":13.12442819,"ECCENTRICITY":0.0001845,"INCLINATION":87.8959,"RA_OF_ASC_NODE":31.3534,"ARG_OF_PERICENTER":100.0732,"MEAN_ANOMALY":260.0605,"EPHEMERIS_TYPE":0,"CLASSIFICATION_TYPE":"U","NORAD_CAT_ID":47278,"ELEMENT_SET_NO":999,"REV_AT_EPOCH":23772,"BSTAR":-0.0011455,"MEAN_MOTION_DOT":-3.99e-6,"MEAN_MOTION_DDOT":0},{"OBJECT_NAME":"ONEWEB-0133","OBJECT_ID":"2020-100X","EPOCH":"2025-11-24T11:00:53.273952","MEAN_MOTION":13.12444112,"ECCENTRICITY":0.0001977,"INCLINATION":87.8954,"RA_OF_ASC_NODE":31.313,"ARG_OF_PERICENTER":100.086,"MEAN_ANOMALY":260.0492,"EPHEMERIS_TYPE":0,"CLASSIFICATION_TYPE":"U","NORAD_CAT_ID":47279,"ELEMENT_SET_NO":999,"REV_AT_EPOCH":23788,"BSTAR":0.00016705,"MEAN_MOTION_DOT":7.3e-7,"MEAN_MOTION_DDOT":0},{"OBJECT_NAME":"ONEWEB-0134","OBJECT_ID":"2020-100Y","EPOCH":"2025-11-24T04:47:21.550272","MEAN_MOTION":13.12441988,"ECCENTRICITY":0.0002032,"INCLINATION":87.8963,"RA_OF_ASC_NODE":31.359,"ARG_OF_PERICENTER":96.2416,"MEAN_ANOMALY":263.8944,"EPHEMERIS_TYPE":0,"CLASSIFICATION_TYPE":"U","NORAD_CAT_ID":47280,"ELEMENT_SET_NO":999,"REV_AT_EPOCH":23782,"BSTAR":-0.00065734,"MEAN_MOTION_DOT":-2.24e-6,"MEAN_MOTION_DDOT":0},{"OBJECT_NAME":"ONEWEB-0135","OBJECT_ID":"2020-100Z","EPOCH":"2025-11-24T04:05:19.207680","MEAN_MOTION":13.12443042,"ECCENTRICITY":0.0002221,"INCLINATION":87.8959,"RA_OF_ASC_NODE":31.4045,"ARG_OF_PERICENTER":96.4307,"MEAN_ANOMALY":263.7074,"EPHEMERIS_TYPE":0,"CLASSIFICATION_TYPE":"U","NORAD_CAT_ID":47281,"ELEMENT_SET_NO":999,"REV_AT_EPOCH":23784,"BSTAR":0.001505,"MEAN_MOTION_DOT":5.54e-6,"MEAN_MOTION_DDOT":0},{"OBJECT_NAME":"ONEWEB-0136","OBJECT_ID":"2020-100AA","EPOCH":"2025-11-24T10:02:41.443872","MEAN_MOTION":13.12441601,"ECCENTRICITY":0.0002086,"INCLINATION":87.8963,"RA_OF_ASC_NODE":31.3245,"ARG_OF_PERICENTER":91.7784,"MEAN_ANOMALY":268.3584,"EPHEMERIS_TYPE":0,"CLASSIFICATION_TYPE":"U","NORAD_CAT_ID":47282,"ELEMENT_SET_NO":999,"REV_AT_EPOCH":23780,"BSTAR":0.00027643,"MEAN_MOTION_DOT":1.12e-6,"MEAN_MOTION_DDOT":0},{"OBJECT_NAME":"ONEWEB-0137","OBJECT_ID":"2020-100AB","EPOCH":"2025-11-24T05:22:23.345184","MEAN_MOTION":13.12443847,"ECCENTRICITY":0.0001621,"INCLINATION":87.8962,"RA_OF_ASC_NODE":31.3689,"ARG_OF_PERICENTER":99.9377,"MEAN_ANOMALY":260.1935,"EPHEMERIS_TYPE":0,"CLASSIFICATION_TYPE":"U","NORAD_CAT_ID":47283,"ELEMENT_SET_NO":999,"REV_AT_EPOCH":23768,"BSTAR":-0.00045255,"MEAN_MOTION_DOT":-1.5e-6,"MEAN_MOTION_DDOT":0},{"OBJECT_NAME":"ONEWEB-0138","OBJECT_ID":"2020-100AC","EPOCH":"2025-11-24T04:52:01.597728","MEAN_MOTION":13.12442067,"ECCENTRICITY":0.0001895,"INCLINATION":87.8957,"RA_OF_ASC_NODE":31.3816,"ARG_OF_PERICENTER":96.7679,"MEAN_ANOMALY":263.3665,"EPHEMERIS_TYPE":0,"CLASSIFICATION_TYPE":"U","NORAD_CAT_ID":47284,"ELEMENT_SET_NO":999,"REV_AT_EPOCH":23776,"BSTAR":-0.00090223,"MEAN_MOTION_DOT":-3.12e-6,"MEAN_MOTION_DDOT":0},{"OBJECT_NAME":"ONEWEB-0139","OBJECT_ID":"2020-100AD","EPOCH":"2025-11-24T05:48:17.930016","MEAN_MOTION":13.1244467,"ECCENTRICITY":0.0001858,"INCLINATION":87.896,"RA_OF_ASC_NODE":31.3641,"ARG_OF_PERICENTER":102.6072,"MEAN_ANOMALY":257.5264,"EPHEMERIS_TYPE":0,"CLASSIFICATION_TYPE":"U","NORAD_CAT_ID":47285,"ELEMENT_SET_NO":999,"REV_AT_EPOCH":23784,"BSTAR":0.0012451,"MEAN_MOTION_DOT":4.61e-6,"MEAN_MOTION_DDOT":0},{"OBJECT_NAME":"ONEWEB-0140","OBJECT_ID":"2020-100AE","EPOCH":"2025-11-24T04:42:41.491584","MEAN_MOTION":13.12437727,"ECCENTRICITY":0.0001977,"INCLINATION":87.8963,"RA_OF_ASC_NODE":31.3598,"ARG_OF_PERICENTER":98.4185,"MEAN_ANOMALY":261.7167,"EPHEMERIS_TYPE":0,"CLASSIFICATION_TYPE":"U","NORAD_CAT_ID":47286,"ELEMENT_SET_NO":999,"REV_AT_EPOCH":23780,"BSTAR":-0.0015409,"MEAN_MOTION_DOT":-5.42e-6,"MEAN_MOTION_DDOT":0},{"OBJECT_NAME":"ONEWEB-0141","OBJECT_ID":"2020-100AF","EPOCH":"2025-11-24T05:47:54.024000","MEAN_MOTION":13.12443752,"ECCENTRICITY":0.0001482,"INCLINATION":87.8954,"RA_OF_ASC_NODE":31.3607,"ARG_OF_PERICENTER":101.6087,"MEAN_ANOMALY":258.5208,"EPHEMERIS_TYPE":0,"CLASSIFICATION_TYPE":"U","NORAD_CAT_ID":47287,"ELEMENT_SET_NO":999,"REV_AT_EPOCH":23779,"BSTAR":0.001147,"MEAN_MOTION_DOT":4.25e-6,"MEAN_MOTION_DDOT":0}]
